NORAD_CAT_ID,OBJECT_NAME,OBJECT_TYPE,EPOCH,MEAN_MOTION,ECCENTRICITY,INCLINATION,RA_OF_ASC_NODE,ARG_OF_PERICENTER,MEAN_ANOMALY,BSTAR,MEAN_MOTION_DOT,MEAN_MOTION_DDOT,TLE_LINE0,TLE_LINE1,TLE_LINE2,SEMIMAJOR_AXIS,PERIOD,APOGEE,PERIGEE,DECAYED
50159.0,STARLINK-3297,PAYLOAD,2022-08-20 12:21:45,15.08834808,0.0001709,53.2159,322.3679,58.7875,301.3285,4.7004e-05,4.6e-06,0.0,0 STARLINK-3297,1 50159U 21125D   22232.51510715  .00000460  00000-0  47004-4 0  9996,2 50159  53.2159 322.3679 0001709  58.7875 301.3285 15.08834808 37081,6917.896,95.438,540.944,538.5790000000002,0.0
50159.0,STARLINK-3297,PAYLOAD,2022-08-21 12:12:32,15.08840341,0.0001684,53.217,317.9075,59.3266,300.7892,0.00013585,1.875e-05,0.0,0 STARLINK-3297,1 50159U 21125D   22233.50870442  .00001875  00000-0  13585-3 0  9999,2 50159  53.2170 317.9075 0001684  59.3266 300.7892 15.08840341 40773,6917.879,95.438,540.909,538.5790000000002,0.0
50159.0,STARLINK-3297,PAYLOAD,2022-08-21 16:58:41,15.08841855,0.0001692,53.2169,317.0153,59.5516,300.5644,0.00014115,1.959e-05,0.0,0 STARLINK-3297,1 50159U 21125D   22233.70742342  .00001959  00000-0  14115-3 0  9991,2 50159  53.2169 317.0153 0001692  59.5516 300.5644 15.08841855 40806,6917.875,95.437,540.91,538.569,0.0
50159.0,STARLINK-3297,PAYLOAD,2022-08-22 05:41:47,15.08831436,0.0001708,53.2168,314.6364,60.76,299.3563,9.1025e-05,1.161e-05,0.0,0 STARLINK-3297,1 50159U 21125D   22234.23735167  .00001161  00000-0  91025-4 0  9998,2 50159  53.2168 314.6364 0001708  60.7600 299.3563 15.08831436 37342,6917.906999999997,95.438,540.953,538.59,0.0
50159.0,STARLINK-3297,PAYLOAD,2022-08-22 08:52:33,15.08829929,0.000168,53.2167,314.0416,60.2761,299.8398,7.5164e-05,9.08e-06,0.0,0 STARLINK-3297,1 50159U 21125D   22234.36983332  .00000908  00000-0  75164-4 0  9995,2 50159  53.2167 314.0416 0001680  60.2761 299.8398 15.08829929 40906,6917.911,95.438,540.938,538.614,0.0
50159.0,STARLINK-3297,PAYLOAD,2022-08-22 13:38:43,15.08830483,0.0001669,53.2167,313.1495,60.0149,300.1009,7.535e-05,9.11e-06,0.0,0 STARLINK-3297,1 50159U 21125D   22234.56855368  .00000911  00000-0  75350-4 0  9995,2 50159  53.2167 313.1495 0001669  60.0149 300.1009 15.08830483 40933,6917.909000000002,95.438,540.929,538.62,0.0
50159.0,STARLINK-3297,PAYLOAD,2022-08-23 11:54:07,15.08830545,0.0001647,53.2166,308.9863,57.542,302.5731,-3.4014e-05,-8.29e-06,0.0,0 STARLINK-3297,1 50159U 21125D   22235.49591903 -.00000829  00000-0 -34014-4 0  9992,2 50159  53.2166 308.9863 0001647  57.5420 302.5731 15.08830545 41075,6917.909000000002,95.438,540.914,538.635,0.0
50159.0,STARLINK-3297,PAYLOAD,2022-08-24 11:44:55,15.08824943,0.0001606,53.2162,304.5259,52.0033,308.1104,1.2497e-05,-8.9e-07,0.0,0 STARLINK-3297,1 50159U 21125D   22236.48952893 -.00000089  00000-0  12497-4 0  9999,2 50159  53.2162 304.5259 0001606  52.0033 308.1104 15.08824943 41225,6917.926,95.439,540.9019999999998,538.68,0.0
50159.0,STARLINK-3297,PAYLOAD,2022-08-25 05:14:10,15.08824524,0.0001588,53.2162,301.255,52.692,307.4217,8.0917e-05,1e-05,0.0,0 STARLINK-3297,1 50159U 21125D   22237.21817238  .00001000  00000-0  80917-4 0  9999,2 50159  53.2162 301.2550 0001588  52.6920 307.4217 15.08824524 37792,6917.928000000001,95.439,540.891,538.694,0.0
50159.0,STARLINK-3297,PAYLOAD,2022-08-25 10:00:19,15.08826495,0.0001592,53.2162,300.3629,52.8974,307.2163,9.2694e-05,1.187e-05,0.0,0 STARLINK-3297,1 50159U 21125D   22237.41689271  .00001187  00000-0  92694-4 0  9996,2 50159  53.2162 300.3629 0001592  52.8974 307.2163 15.08826495 41360,6917.922,95.438,540.888,538.685,0.0
50159.0,STARLINK-3297,PAYLOAD,2022-08-26 09:51:06,15.08833886,0.0001623,53.2161,295.9023,53.4807,306.6334,0.00010527,1.387e-05,0.0,0 STARLINK-3297,1 50159U 21125D   22238.41049482  .00001387  00000-0  10527-3 0  9997,2 50159  53.2161 295.9023 0001623  53.4807 306.6334 15.08833886 37970,6917.899,95.438,540.887,538.641,0.0
50159.0,STARLINK-3297,PAYLOAD,2022-08-27 11:17:16,15.08842705,0.000165,53.216,291.1444,53.7661,306.3483,0.00011513,1.545e-05,0.0,0 STARLINK-3297,1 50159U 21125D   22239.47033118  .00001545  00000-0  11513-3 0  9995,2 50159  53.2160 291.1444 0001650  53.7661 306.3483 15.08842705 41679,6917.871999999999,95.437,540.879,538.596,0.0
50159.0,STARLINK-3297,PAYLOAD,2022-08-27 20:49:35,15.08847788,0.0001641999999999,53.2158,289.3602,53.1349,306.9793,0.00012768,1.745e-05,0.0,0 STARLINK-3297,1 50159U 21125D   22239.86776671  .00001745  00000-0  12768-3 0  9991,2 50159  53.2158 289.3602 0001642  53.1349 306.9793 15.08847788 41732,6917.857,95.437,540.857,538.586,0.0
50159.0,STARLINK-3297,PAYLOAD,2022-08-28 11:08:02,15.08855042,0.0001727,53.2158,286.6841,51.9209,308.1939,0.00014059,1.951e-05,0.0,0 STARLINK-3297,1 50159U 21125D   22240.46391953  .00001951  00000-0  14059-3 0  9999,2 50159  53.2158 286.6841 0001727  51.9209 308.1939 15.08855042 41820,6917.834,95.437,540.894,538.505,0.0
50159.0,STARLINK-3297,PAYLOAD,2022-08-29 06:12:40,15.08848353,0.0001761999999999,53.2157,283.1152,53.6624,306.4531,3.303e-05,2.38e-06,0.0,0 STARLINK-3297,1 50159U 21125D   22241.25880101  .00000238  00000-0  33030-4 0  9993,2 50159  53.2157 283.1152 0001762  53.6624 306.4531 15.08848353 38401,6917.855,95.437,540.939,538.501,0.0
50159.0,STARLINK-3297,PAYLOAD,2022-08-29 10:58:49,15.08846451,0.0001665999999999,53.2155,282.223,53.557,306.5576,7.0994e-06,-1.75e-06,0.0,0 STARLINK-3297,1 50159U 21125D   22241.45752152 -.00000175  00000-0  70994-5 0  9991,2 50159  53.2155 282.2230 0001666  53.5570 306.5576 15.08846451 41971,6917.861,95.437,540.878,538.573,0.0
50159.0,STARLINK-3297,PAYLOAD,2022-08-30 09:14:14,15.08838635,0.0001747,53.2154,278.0602,51.1001,309.0147,-8.474200000000001e-05,-1.636e-05,0.0,0 STARLINK-3297,1 50159U 21125D   22242.38488514 -.00001636  00000-0 -84742-4 0  9991,2 50159  53.2154 278.0602 0001747  51.1001 309.0147 15.08838635 38578,6917.885,95.438,540.9580000000002,538.5409999999998,0.0
50159.0,STARLINK-3297,PAYLOAD,2022-08-31 10:40:24,15.08835914,0.0001799,53.2154,273.3021,51.0308,309.0844,9.1095e-06,-1.43e-06,0.0,0 STARLINK-3297,1 50159U 21125D   22243.44472573 -.00000143  00000-0  91095-5 0  9998,2 50159  53.2154 273.3021 0001799  51.0308 309.0844 15.08835914 42270,6917.893,95.438,541.002,538.513,0.0
50159.0,STARLINK-3297,PAYLOAD,2022-09-01 10:31:11,15.08836156,0.0001884,53.2153,268.8417,53.4268,306.6897,0.00013332,1.834e-05,0.0,0 STARLINK-3297,1 50159U 21125D   22244.43832618  .00001834  00000-0  13332-3 0  9991,2 50159  53.2153 268.8417 0001884  53.4268 306.6897 15.08836156 42420,6917.892,95.438,541.06,538.4540000000002,0.0
50159.0,STARLINK-3297,PAYLOAD,2022-09-01 18:28:06,15.0883772,0.0001909,53.2153,267.3547,53.416,306.7008,0.00011164,1.489e-05,0.0,0 STARLINK-3297,1 50159U 21125D   22244.76952539  .00001489  00000-0  11164-3 0  9999,2 50159  53.2153 267.3547 0001909  53.4160 306.7008 15.08837720 38931,6917.887,95.438,541.073,538.432,0.0
50159.0,STARLINK-3297,PAYLOAD,2022-09-02 10:21:58,15.0884424,0.0001974,53.2153,264.3806,52.5211,307.596,0.00012483,1.699e-05,0.0,0 STARLINK-3297,1 50159U 21125D   22245.43192240  .00001699  00000-0  12483-3 0  9997,2 50159  53.2153 264.3806 0001974  52.5211 307.5960 15.08844240 42571,6917.8669999999975,95.437,541.0980000000002,538.367,0.0
50159.0,STARLINK-3297,PAYLOAD,2022-09-02 18:18:53,15.08845123,0.0001981,53.2153,262.8936,52.5936,307.5236,0.00010403,1.368e-05,0.0,0 STARLINK-3297,1 50159U 21125D   22245.76312048  .00001368  00000-0  10403-3 0  9996,2 50159  53.2153 262.8936 0001981  52.5936 307.5236 15.08845123 42623,6917.865,95.437,541.1,538.359,0.0
50159.0,STARLINK-3297,PAYLOAD,2022-09-03 05:26:36,15.0883549,0.000199,53.2156,260.8124,57.1552,302.9631,-2.5342e-06,-3.29e-06,0.0,0 STARLINK-3297,1 50159U 21125D   22246.22681365 -.00000329  00000-0 -25342-5 0  9997,2 50159  53.2156 260.8124 0001990  57.1552 302.9631 15.08835490 39156,6917.894,95.438,541.136,538.383,0.0
50159.0,STARLINK-3297,PAYLOAD,2022-09-03 08:37:22,15.08836625,0.0001861,53.2159,260.217,61.6419,298.4761,-4.1679000000000005e-08,-2.89e-06,0.0,0 STARLINK-3297,1 50159U 21125D   22246.35929263 -.00000289  00000-0 -41679-7 0  9991,2 50159  53.2159 260.2170 0001861  61.6419 298.4761 15.08836625 42713,6917.891,95.438,541.043,538.4680000000002,0.0
50159.0,STARLINK-3297,PAYLOAD,2022-09-03 18:09:41,15.08838197,0.0002077,53.2157,258.4333,54.9076,305.2111,1.8575e-05,7e-08,0.0,0 STARLINK-3297,1 50159U 21125D   22246.75673244  .00000007  00000-0  18575-4 0  9992,2 50159  53.2157 258.4333 0002077  54.9076 305.2111 15.08838197 42773,6917.886,95.438,541.188,538.314,0.0
50159.0,STARLINK-3297,PAYLOAD,2022-09-04 05:17:23,15.08842663,0.0001984,53.2153,256.3511,53.7691,306.3484,2.9006e-05,1.73e-06,0.0,0 STARLINK-3297,1 50159U 21125D   22247.22040823  .00000173  00000-0  29006-4 0  9991,2 50159  53.2153 256.3511 0001984  53.7691 306.3484 15.08842663 39303,6917.871999999999,95.437,541.11,538.365,0.0
50159.0,STARLINK-3297,PAYLOAD,2022-09-04 08:28:09,15.08844096,0.0002058,53.2155,255.7566,52.9534,307.1647,4.111e-05,3.66e-06,0.0,0 STARLINK-3297,1 50159U 21125D   22247.35288732  .00000366  00000-0  41110-4 0  9992,2 50159  53.2155 255.7566 0002058  52.9534 307.1647 15.08844096 42865,6917.868,95.437,541.1569999999998,538.309,0.0
50159.0,STARLINK-3297,PAYLOAD,2022-09-05 09:54:19,15.08850132,0.0001914,53.2151,251.0004,37.2471,322.8654,0.00027897,4.156e-05,0.0,0 STARLINK-3297,1 50159U 21125D   22248.41272354  .00004156  00000-0  27897-3 0  9999,2 50159  53.2151 251.0004 0001914  37.2471 322.8654 15.08850132 43022,6917.849,95.437,541.038,538.39,0.0
50159.0,STARLINK-3297,PAYLOAD,2022-09-05 19:26:38,15.0884226,0.0001717,53.2141,249.2127,51.6312,308.4834,0.00012022,1.626e-05,0.0,0 STARLINK-3297,1 50159U 21125D   22248.81016706  .00001626  00000-0  12022-3 0  9993,2 50159  53.2141 249.2127 0001717  51.6312 308.4834 15.08842260 43080,6917.873000000001,95.437,540.9259999999998,538.5509999999998,0.0
